{
  "type": "FeatureCollection",
  "features": [
    {
      "type": "Feature",
      "properties": {
        "norad_id": 37836,
        "name": "EUTELSAT 16A",
        "group": "eutelsat",
        "lat": -0.03886012217190168,
        "lon": -146.95614705949907,
        "alt_km": 35770.29822500867,
        "timestamp": "2025-12-12T07:43:20.174955+00:00",
        "meta_object_name": "EUTELSAT 16A",
        "meta_object_id": "2011-057A",
        "meta_epoch": "2025-12-11T23:45:20.409120",
        "meta_mean_motion": 1.00272027,
        "meta_eccentricity": 0.00060166,
        "meta_inclination": 0.0591,
        "meta_ra_of_asc_node": 8.2055,
        "meta_arg_of_pericenter": 256.8856,
        "meta_mean_anomaly": 188.1861,
        "meta_ephemeris_type": 0,
        "meta_classification_type": "U",
        "meta_norad_cat_id": 37836,
        "meta_element_set_no": 999,
        "meta_rev_at_epoch": 545,
        "meta_bstar": 0,
        "meta_mean_motion_dot": 1.13e-06,
        "meta_mean_motion_ddot": 0,
        "tle_line1": "1 37836U 11057A   25345.98981955  .00000113  00000+0  00000+0 0  9997",
        "tle_line2": "2 37836   0.0591   8.2055 0006016 256.8856 188.1861  1.00272027  5455"
      },
      "geometry": {
        "type": "Point",
        "coordinates": [
          -146.95614705949907,
          -0.03886012217190168
        ]
      }
    },
    {
      "type": "Feature",
      "properties": {
        "norad_id": 38992,
        "name": "EUTELSAT 21B",
        "group": "eutelsat",
        "lat": -0.0529209362456562,
        "lon": -141.33494576685658,
        "alt_km": 35777.1968134831,
        "timestamp": "2025-12-12T07:43:20.174967+00:00",
        "meta_object_name": "EUTELSAT 21B",
        "meta_object_id": "2012-062B",
        "meta_epoch": "2025-12-11T22:10:25.288320",
        "meta_mean_motion": 1.00272129,
        "meta_eccentricity": 0.00033376,
        "meta_inclination": 0.0666,
        "meta_ra_of_asc_node": 4.2938,
        "meta_arg_of_pericenter": 266.1862,
        "meta_mean_anomaly": 164.5991,
        "meta_ephemeris_type": 0,
        "meta_classification_type": "U",
        "meta_norad_cat_id": 38992,
        "meta_element_set_no": 999,
        "meta_rev_at_epoch": 4795,
        "meta_bstar": 0,
        "meta_mean_motion_dot": 1.39e-06,
        "meta_mean_motion_ddot": 0,
        "tle_line1": "1 38992U 12062B   25345.92390380  .00000139  00000+0  00000+0 0  9996",
        "tle_line2": "2 38992   0.0666   4.2938 0003337 266.1862 164.5991  1.00272129 47958"
      },
      "geometry": {
        "type": "Point",
        "coordinates": [
          -141.33494576685658,
          -0.0529209362456562
        ]
      }
    },
    {
      "type": "Feature",
      "properties": {
        "norad_id": 39020,
        "name": "EUTELSAT 70B",
        "group": "eutelsat",
        "lat": -0.07809303667783728,
        "lon": -92.36908985440878,
        "alt_km": 35769.335390954526,
        "timestamp": "2025-12-12T07:43:20.174979+00:00",
        "meta_object_name": "EUTELSAT 70B",
        "meta_object_id": "2012-069A",
        "meta_epoch": "2025-12-11T22:24:23.949792",
        "meta_mean_motion": 1.00270933,
        "meta_eccentricity": 0.00043117,
        "meta_inclination": 0.0628,
        "meta_ra_of_asc_node": 343.7306,
        "meta_arg_of_pericenter": 262.4133,
        "meta_mean_anomaly": 241.3588,
        "meta_ephemeris_type": 0,
        "meta_classification_type": "U",
        "meta_norad_cat_id": 39020,
        "meta_element_set_no": 999,
        "meta_rev_at_epoch": 4763,
        "meta_bstar": 0,
        "meta_mean_motion_dot": -3.5e-07,
        "meta_mean_motion_ddot": 0,
        "tle_line1": "1 39020U 12069A   25345.93361053 -.00000035  00000+0  00000+0 0  9998",
        "tle_line2": "2 39020   0.0628 343.7306 0004311 262.4133 241.3588  1.00270933 47634"
      },
      "geometry": {
        "type": "Point",
        "coordinates": [
          -92.36908985440878,
          -0.07809303667783728
        ]
      }
    },
    {
      "type": "Feature",
      "properties": {
        "norad_id": 39122,
        "name": "EUTELSAT 117 WEST A",
        "group": "eutelsat",
        "lat": 0.030123515628240737,
        "lon": 80.29341533551795,
        "alt_km": 35798.645524814325,
        "timestamp": "2025-12-12T07:43:20.174991+00:00",
        "meta_object_name": "EUTELSAT 117 WEST A",
        "meta_object_id": "2013-012A",
        "meta_epoch": "2025-12-11T23:13:43.760640",
        "meta_mean_motion": 1.00271472,
        "meta_eccentricity": 0.00029566,
        "meta_inclination": 0.0144,
        "meta_ra_of_asc_node": 8.2993,
        "meta_arg_of_pericenter": 255.3343,
        "meta_mean_anomaly": 48.9131,
        "meta_ephemeris_type": 0,
        "meta_classification_type": "U",
        "meta_norad_cat_id": 39122,
        "meta_element_set_no": 999,
        "meta_rev_at_epoch": 4655,
        "meta_bstar": 0,
        "meta_mean_motion_dot": -4e-08,
        "meta_mean_motion_ddot": 0,
        "tle_line1": "1 39122U 13012A   25345.96786760 -.00000004  00000+0  00000+0 0  9995",
        "tle_line2": "2 39122   0.0144   8.2993 0002956 255.3343  48.9131  1.00271472 46556"
      },
      "geometry": {
        "type": "Point",
        "coordinates": [
          80.29341533551795,
          0.030123515628240737
        ]
      }
    },
    {
      "type": "Feature",
      "properties": {
        "norad_id": 39163,
        "name": "EUTELSAT 7B",
        "group": "eutelsat",
        "lat": -0.01731619062855557,
        "lon": -155.95596298450076,
        "alt_km": 35793.30867142266,
        "timestamp": "2025-12-12T07:43:20.175004+00:00",
        "meta_object_name": "EUTELSAT 7B",
        "meta_object_id": "2013-022A",
        "meta_epoch": "2025-12-11T22:06:18.182592",
        "meta_mean_motion": 1.00272719,
        "meta_eccentricity": 0.0004619,
        "meta_inclination": 0.0731,
        "meta_ra_of_asc_node": 20.0166,
        "meta_arg_of_pericenter": 296.9814,
        "meta_mean_anomaly": 102.4454,
        "meta_ephemeris_type": 0,
        "meta_classification_type": "U",
        "meta_norad_cat_id": 39163,
        "meta_element_set_no": 999,
        "meta_rev_at_epoch": 4607,
        "meta_bstar": 0,
        "meta_mean_motion_dot": 5.7e-07,
        "meta_mean_motion_ddot": 0,
        "tle_line1": "1 39163U 13022A   25345.92104378  .00000057  00000+0  00000+0 0  9993",
        "tle_line2": "2 39163   0.0731  20.0166 0004619 296.9814 102.4454  1.00272719 46075"
      },
      "geometry": {
        "type": "Point",
        "coordinates": [
          -155.95596298450076,
          -0.01731619062855557
        ]
      }
    },
    {
      "type": "Feature",
      "properties": {
        "norad_id": 39612,
        "name": "EXPRESS-AT1",
        "group": "eutelsat",
        "lat": -0.027263368637610676,
        "lon": -106.907457181041,
        "alt_km": 35784.86300892411,
        "timestamp": "2025-12-12T07:43:20.175016+00:00",
        "meta_object_name": "EXPRESS-AT1",
        "meta_object_id": "2014-010A",
        "meta_epoch": "2025-12-11T22:20:16.844064",
        "meta_mean_motion": 1.00271479,
        "meta_eccentricity": 3.871e-05,
        "meta_inclination": 0.0177,
        "meta_ra_of_asc_node": 298.5169,
        "meta_arg_of_pericenter": 275.6842,
        "meta_mean_anomaly": 257.7452,
        "meta_ephemeris_type": 0,
        "meta_classification_type": "U",
        "meta_norad_cat_id": 39612,
        "meta_element_set_no": 999,
        "meta_rev_at_epoch": 4294,
        "meta_bstar": 0,
        "meta_mean_motion_dot": 8.7e-07,
        "meta_mean_motion_ddot": 0,
        "tle_line1": "1 39612U 14010A   25345.93075051  .00000087  00000+0  00000+0 0  9999",
        "tle_line2": "2 39612   0.0177 298.5169 0000387 275.6842 257.7452  1.00271479 42942"
      },
      "geometry": {
        "type": "Point",
        "coordinates": [
          -106.907457181041,
          -0.027263368637610676
        ]
      }
    },
    {
      "type": "Feature",
      "properties": {
        "norad_id": 39613,
        "name": "EXPRESS-AT2",
        "group": "eutelsat",
        "lat": 0.010102999166913734,
        "lon": -23.021620435302303,
        "alt_km": 35783.102919756835,
        "timestamp": "2025-12-12T07:43:20.175028+00:00",
        "meta_object_name": "EXPRESS-AT2",
        "meta_object_id": "2014-010B",
        "meta_epoch": "2025-12-11T15:53:16.407744",
        "meta_mean_motion": 1.00271778,
        "meta_eccentricity": 0.00014239,
        "meta_inclination": 0.0193,
        "meta_ra_of_asc_node": 312.5987,
        "meta_arg_of_pericenter": 324.9998,
        "meta_mean_anomaly": 181.2055,
        "meta_ephemeris_type": 0,
        "meta_classification_type": "U",
        "meta_norad_cat_id": 39613,
        "meta_element_set_no": 999,
        "meta_rev_at_epoch": 4262,
        "meta_bstar": 0,
        "meta_mean_motion_dot": -2.73e-06,
        "meta_mean_motion_ddot": 0,
        "tle_line1": "1 39613U 14010B   25345.66199546 -.00000273  00000+0  00000+0 0  9994",
        "tle_line2": "2 39613   0.0193 312.5987 0001423 324.9998 181.2055  1.00271778 42625"
      },
      "geometry": {
        "type": "Point",
        "coordinates": [
          -23.021620435302303,
          0.010102999166913734
        ]
      }
    }
  ]
}